LANDSAT 9               
1 49260U 21088A   24040.14138490  .00000818  00000+0  19156-3 0  9991
2 49260  98.2026 111.8640 0001013 105.8083 254.3227 14.57117005125892
